ONEWEB-0461             
1 51649U 22012AD  24288.55041475  .00000120  00000+0  27697-3 0  9993
2 51649  87.9082 127.5012 0001581  83.6525 276.4787 13.17651453133478
ONEWEB-0463             
1 51650U 22012AE  24288.45592960  .00000163  00000+0  38599-3 0  9994
2 51650  87.9086 127.5720 0001537  86.2809 273.8498 13.17649113133240
ONEWEB-0464             
1 51651U 22012AF  24288.17293433  .00000267  00000+0  72732-3 0  9999
2 51651  87.8947 157.9119 0002006  80.8568 279.2786 13.10372686129302
ONEWEB-0468             
1 51652U 22012AG  24288.17957778  .00000639  00000+0  17934-2 0  9994
2 51652  87.8946 157.9028 0001711  77.6699 282.4620 13.10380164129282
ONEWEB-0473             
1 51653U 22012AH  24288.39371860  .00000542  00000+0  15149-2 0  9990
2 51653  87.8948 157.8642 0001654  81.1996 278.9319 13.10376891129313
ONEWEB-0474             
1 51654U 22012AJ  24288.61446845 -.00000110  00000+0 -35108-3 0  9993
2 51654  87.8940 157.8063 0001768  83.4610 276.6718 13.10375883129337
ONEWEB-0475             
1 51655U 22012AK  24288.46773775  .00000171  00000+0  40625-3 0  9997
2 51655  87.9088 127.5490 0001977 111.6754 248.4588 13.17648619133261
ONEWEB-0490             
1 54113U 22138A   24287.89959574  .00000055  00000+0  10584-3 0  9999
2 54113  87.9132  66.5279 0001861  97.1860 262.9484 13.19728265 97070
